{
  "type": "FeatureCollection",
  "features": [
    {
      "type": "Feature",
      "properties": {
        "stroke": "#5555ff",
        "stroke-width": 3,
        "stroke-opacity": 1
      },
      "geometry": {
        "coordinates": [
          [
            -73.99410969211509,
            40.713979620788905
          ],
          [
            -73.98659076952212,
            40.70074787625819
          ],
          [
            -73.99187566804102,
            40.7016612676118
          ],
          [
            -73.99654799976452,
            40.69980304555506
          ],
          [
            -73.99939063939948,
            40.69288956839361
          ],
          [
            -73.9985780558002,
            40.689037594580526
          ],
          [
            -74.00345386447782,
            40.67964170950805
          ],
          [
            -73.99553212878702,
            40.666853490510675
          ],
          [
            -74.00812342344817,
            40.65406633231632
          ],
          [
            -74.0217215677342,
            40.640363421472955
          ],
          [
            -74.02131319376284,
            40.63759385677142
          ],
          [
            -74.01521736214734,
            40.63437232819149
          ],
          [
            -74.01258176034597,
            40.63267246389023
          ],
          [
            -74.00872577955117,
            40.63590686117118
          ]
        ],
        "type": "LineString"
      },
      "id": 0
    },
    {
      "type": "Feature",
      "properties": {
        "stroke": "#0055ff",
        "stroke-width": 3,
        "stroke-opacity": 1
      },
      "geometry": {
        "coordinates": [
          [
            -73.98667636758822,
            40.70108318026365
          ],
          [
            -73.9807830800917,
            40.69648804288289
          ],
          [
            -73.96456805823792,
            40.695744241619906
          ],
          [
            -73.96211116492785,
            40.69735667034686
          ],
          [
            -73.96063723858411,
            40.702945077241964
          ],
          [
            -73.95408408587132,
            40.71300302172676
          ],
          [
            -73.94589298462495,
            40.71908730424815
          ],
          [
            -73.9383659761255,
            40.72367513354513
          ],
          [
            -73.93098518444542,
            40.72604014970827
          ],
          [
            -73.92721744511165,
            40.72901958223375
          ],
          [
            -73.92316001605408,
            40.73420708108159
          ],
          [
            -73.9188008265754,
            40.73169276414524
          ],
          [
            -73.91094722853124,
            40.729577617515304
          ],
          [
            -73.90505232813878,
            40.726344974221746
          ],
          [
            -73.89227375305036,
            40.72512806710421
          ],
          [
            -73.88671177409296,
            40.72798366286415
          ],
          [
            -73.87983259655913,
            40.72859634072964
          ],
          [
            -73.85540402399822,
            40.73677708410412
          ],
          [
            -73.84851069235162,
            40.738389986236086
          ],
          [
            -73.8376651965281,
            40.74324549713026
          ],
          [
            -73.83352608633382,
            40.747346748893705
          ],
          [
            -73.83050900763828,
            40.74795072142638
          ],
          [
            -73.82589775156897,
            40.7465044698441
          ],
          [
            -73.8255681078801,
            40.750844485390786
          ],
          [
            -73.8295548624637,
            40.75964472410732
          ]
        ],
        "type": "LineString"
      },
      "id": 1
    },
    {
      "type": "Feature",
      "properties": {
        "stroke": "#adc9ff",
        "stroke-width": 3,
        "stroke-opacity": 1
      },
      "geometry": {
        "coordinates": [
          [
            -73.99387994837778,
            40.713805255031644
          ],
          [
            -73.99019863738935,
            40.71915942191961
          ],
          [
            -73.96032298625228,
            40.709920747551195
          ],
          [
            -73.95552095756351,
            40.71056954564554
          ],
          [
            -73.95397517470799,
            40.712912488088875
          ],
          [
            -73.93834961692954,
            40.7238441187921
          ],
          [
            -73.93010586751603,
            40.72605950816862
          ],
          [
            -73.92272934426934,
            40.733857534603175
          ],
          [
            -73.91860934606257,
            40.732037232930224
          ],
          [
            -73.91088219168479,
            40.72969740256485
          ],
          [
            -73.90676230122533,
            40.727355715983464
          ],
          [
            -73.89974608077753,
            40.73476043694356
          ],
          [
            -73.89562325308259,
            40.73502269048831
          ],
          [
            -73.88306504430065,
            40.73737475067642
          ],
          [
            -73.87757138156431,
            40.736463966125996
          ]
        ],
        "type": "LineString"
      },
      "id": 2
    },
    {
      "type": "Feature",
      "properties": {
        "stroke": "#0055ff",
        "stroke-width": 2,
        "stroke-opacity": 1,
        "fill": "#0055ff",
        "fill-opacity": 1
      },
      "geometry": {
        "type": "Polygon",
        "coordinates": [
          [
            [
              -73.82966586017427,
              40.76110151249509
            ],
            [
              -73.82982699356056,
              40.76109551651783
            ],
            [
              -73.82998657505776,
              40.7610775863338
            ],
            [
              -73.8301430677256,
              40.761047894630046
            ],
            [
              -73.8302949643775,
              40.761006727369406
            ],
            [
              -73.83044080209845,
              40.76095448103601
            ],
            [
              -73.83057917633633,
              40.76089165881604
            ],
            [
              -73.83070875443062,
              40.76081886575088
            ],
            [
              -73.83082828844819,
              40.760736802909015
            ],
            [
              -73.8309366272026,
              40.760646260633266
            ],
            [
              -73.83103272734097,
              40.76054811092798
            ],
            [
              -73.83111566339164,
              40.76044329905999
            ],
            [
              -73.8311846366761,
              40.76033283445391
            ],
            [
              -73.83123898299904,
              40.76021778096973
            ],
            [
              -73.8312781790429,
              40.760099246656296
            ],
            [
              -73.83130184740502,
              40.75997837307935
            ],
            [
              -73.83130976022927,
              40.75985632432705
            ],
            [
              -73.83130184139736,
              40.759734275798856
            ],
            [
              -73.8312781672585,
              40.759613402885556
            ],
            [
              -73.83123896589073,
              40.75949486964986
            ],
            [
              -73.83118461490135,
              40.75937981761608
            ],
            [
              -73.83111563778724,
              40.75926935477731
            ],
            [
              -73.83103269889088,
              40.75916454492562
            ],
            [
              -73.83093659700016,
              40.75906639740814
            ],
            [
              -73.83082825765405,
              40.75897585740764
            ],
            [
              -73.83070872422817,
              40.75889379684103
            ],
            [
              -73.83057914788624,
              40.758821005963675
            ],
            [
              -73.83044077649404,
              40.75875818576002
            ],
            [
              -73.83029494260273,
              40.75870594119393
            ],
            [
              -73.83014305061728,
              40.75866477538368
            ],
            [
              -73.82998656327335,
              40.75863508475766
            ],
            [
              -73.82982698755293,
              40.7586171552373
            ],
            [
              -73.82966586017427,
              40.758611159484126
            ],
            [
              -73.82950473279561,
              40.7586171552373
            ],
            [
              -73.82934515707518,
              40.75863508475766
            ],
            [
              -73.82918866973125,
              40.75866477538368
            ],
            [
              -73.8290367777458,
              40.75870594119393
            ],
            [
              -73.82889094385449,
              40.75875818576002
            ],
            [
              -73.8287525724623,
              40.758821005963675
            ],
            [
              -73.82862299612037,
              40.75889379684103
            ],
            [
              -73.8285034626945,
              40.75897585740764
            ],
            [
              -73.82839512334839,
              40.75906639740814
            ],
            [
              -73.82829902145765,
              40.75916454492562
            ],
            [
              -73.8282160825613,
              40.75926935477731
            ],
            [
              -73.8281471054472,
              40.75937981761608
            ],
            [
              -73.8280927544578,
              40.75949486964986
            ],
            [
              -73.82805355309003,
              40.759613402885556
            ],
            [
              -73.82802987895117,
              40.759734275798856
            ],
            [
              -73.82802196011927,
              40.75985632432705
            ],
            [
              -73.82802987294353,
              40.75997837307935
            ],
            [
              -73.82805354130564,
              40.760099246656296
            ],
            [
              -73.8280927373495,
              40.76021778096973
            ],
            [
              -73.82814708367245,
              40.76033283445391
            ],
            [
              -73.82821605695689,
              40.76044329905999
            ],
            [
              -73.82829899300756,
              40.76054811092798
            ],
            [
              -73.82839509314593,
              40.760646260633266
            ],
            [
              -73.82850343190036,
              40.760736802909015
            ],
            [
              -73.82862296591793,
              40.76081886575088
            ],
            [
              -73.82875254401222,
              40.76089165881604
            ],
            [
              -73.8288909182501,
              40.76095448103601
            ],
            [
              -73.82903675597105,
              40.761006727369406
            ],
            [
              -73.82918865262293,
              40.761047894630046
            ],
            [
              -73.82934514529079,
              40.7610775863338
            ],
            [
              -73.82950472678797,
              40.76109551651783
            ],
            [
              -73.82966586017427,
              40.76110151249509
            ]
          ]
        ]
      },
      "id": 3
    },
    {
      "type": "Feature",
      "properties": {
        "stroke": "#0055ff",
        "stroke-width": 2,
        "stroke-opacity": 1,
        "fill": "#0055ff",
        "fill-opacity": 1
      },
      "geometry": {
        "type": "Polygon",
        "coordinates": [
          [
            [
              -73.87777451818262,
              40.737942970669046
            ],
            [
              -73.8779316878183,
              40.73793712015352
            ],
            [
              -73.87808734374222,
              40.73791962495364
            ],
            [
              -73.87823998682359,
              40.73789065356688
            ],
            [
              -73.87838814695323,
              40.73785048501825
            ],
            [
              -73.87853039720416,
              40.737799506172735
            ],
            [
              -73.8786653675763,
              40.737738208008686
            ],
            [
              -73.8787917581922,
              40.73766718088855
            ],
            [
              -73.87890835181712,
              40.73758710887228
            ],
            [
              -73.87901402558265,
              40.73749876312835
            ],
            [
              -73.87910776180074,
              40.73740299450574
            ],
            [
              -73.87918865776439,
              40.737300725338585
            ],
            [
              -73.87925593444021,
              40.7371929405625
            ],
            [
              -73.87930894396949,
              40.73708067822803
            ],
            [
              -73.87934717590538,
              40.736965019502655
            ],
            [
              -73.87937026212634,
              40.73684707825792
            ],
            [
              -73.87937798037855,
              40.73672799034156
            ],
            [
              -73.8793702564133,
              40.73660890263837
            ],
            [
              -73.87934716469886,
              40.73649096202497
            ],
            [
              -73.87930892770014,
              40.73637530432485
            ],
            [
              -73.87925591373325,
              40.73626304337012
            ],
            [
              -73.87918863341558,
              40.73615526027527
            ],
            [
              -73.87910773474579,
              40.7360529930262
            ],
            [
              -73.87901399686125,
              40.73595722648485
            ],
            [
              -73.87890832253304,
              40.73586888290534
            ],
            [
              -73.87879172947079,
              40.73578881305351
            ],
            [
              -73.87866534052135,
              40.735717788014625
            ],
            [
              -73.87853037285535,
              40.73565649176866
            ],
            [
              -73.87838812624626,
              40.73560551460438
            ],
            [
              -73.87823997055423,
              40.7355653474355
            ],
            [
              -73.87808733253569,
              40.73553637707398
            ],
            [
              -73.87793168210527,
              40.73551888250544
            ],
            [
              -73.87777451818262,
              40.73551303220308
            ],
            [
              -73.87761735425998,
              40.73551888250544
            ],
            [
              -73.87746170382955,
              40.73553637707398
            ],
            [
              -73.87730906581102,
              40.7355653474355
            ],
            [
              -73.87716091011899,
              40.73560551460438
            ],
            [
              -73.87701866350989,
              40.73565649176866
            ],
            [
              -73.87688369584389,
              40.735717788014625
            ],
            [
              -73.87675730689445,
              40.73578881305351
            ],
            [
              -73.8766407138322,
              40.73586888290534
            ],
            [
              -73.87653503950399,
              40.73595722648485
            ],
            [
              -73.87644130161945,
              40.7360529930262
            ],
            [
              -73.87636040294967,
              40.73615526027527
            ],
            [
              -73.87629312263199,
              40.73626304337012
            ],
            [
              -73.87624010866512,
              40.73637530432485
            ],
            [
              -73.8762018716664,
              40.73649096202497
            ],
            [
              -73.87617877995194,
              40.73660890263837
            ],
            [
              -73.87617105598669,
              40.73672799034156
            ],
            [
              -73.8761787742389,
              40.73684707825792
            ],
            [
              -73.87620186045986,
              40.736965019502655
            ],
            [
              -73.87624009239575,
              40.73708067822803
            ],
            [
              -73.87629310192503,
              40.7371929405625
            ],
            [
              -73.87636037860085,
              40.737300725338585
            ],
            [
              -73.87644127456451,
              40.73740299450574
            ],
            [
              -73.8765350107826,
              40.73749876312835
            ],
            [
              -73.87664068454814,
              40.73758710887228
            ],
            [
              -73.87675727817306,
              40.73766718088855
            ],
            [
              -73.87688366878895,
              40.737738208008686
            ],
            [
              -73.87701863916108,
              40.737799506172735
            ],
            [
              -73.87716088941201,
              40.73785048501825
            ],
            [
              -73.87730904954165,
              40.73789065356688
            ],
            [
              -73.87746169262303,
              40.73791962495364
            ],
            [
              -73.87761734854693,
              40.73793712015352
            ],
            [
              -73.87777451818262,
              40.737942970669046
            ]
          ]
        ]
      },
      "id": 4
    },
    {
      "type": "Feature",
      "properties": {
        "stroke": "#0055ff",
        "stroke-width": 2,
        "stroke-opacity": 1,
        "fill": "#0055ff",
        "fill-opacity": 1
      },
      "geometry": {
        "type": "Polygon",
        "coordinates": [
          [
            [
              -74.00867948153925,
              40.63706787382471
            ],
            [
              -74.00884394260682,
              40.6370617426127
            ],
            [
              -74.00900681973452,
              40.637043408026926
            ],
            [
              -74.0091665442401,
              40.637013046649436
            ],
            [
              -74.00932157780964,
              40.636970950893044
            ],
            [
              -74.00947042731525,
              40.636917526184625
            ],
            [
              -74.00961165919755,
              40.63685328705985
            ],
            [
              -74.0097439132737,
              40.636778852206824
            ],
            [
              -74.00986591583843,
              40.63669493850666
            ],
            [
              -74.00997649193152,
              40.63660235412828
            ],
            [
              -74.01007457665361,
              40.63650199074395
            ],
            [
              -74.0101592254214,
              40.636394814940765
            ],
            [
              -74.01022962306362,
              40.63628185891048
            ],
            [
              -74.01028509166976,
              40.63616421050792
            ],
            [
              -74.01032509711663,
              40.63604300277326
            ],
            [
              -74.01034925420961,
              40.635919403019415
            ],
            [
              -74.01035733038911,
              40.63579460158949
            ],
            [
              -74.01034924796701,
              40.63566980039286
            ],
            [
              -74.01032508487134,
              40.635546201329916
            ],
            [
              -74.01028507389233,
              40.63542499471723
            ],
            [
              -74.01022960043726,
              40.63530734782459
            ],
            [
              -74.01015919881563,
              40.63519439363416
            ],
            [
              -74.01007454709085,
              40.63508721993003
            ],
            [
              -74.00997646054786,
              40.634986858823325
            ],
            [
              -74.00986588383992,
              40.63489427681358
            ],
            [
              -74.00974388189002,
              40.634810365482075
            ],
            [
              -74.00961162963478,
              40.63473593290666
            ],
            [
              -74.00947040070946,
              40.63467169588095
            ],
            [
              -74.00932155518328,
              40.63461827301238
            ],
            [
              -74.00916652646269,
              40.63457617876591
            ],
            [
              -74.00900680748921,
              40.63454581851039
            ],
            [
              -74.00884393636423,
              40.634527484615525
            ],
            [
              -74.00867948153925,
              40.6345213536368
            ],
            [
              -74.00851502671426,
              40.634527484615525
            ],
            [
              -74.00835215558926,
              40.63454581851039
            ],
            [
              -74.0081924366158,
              40.63457617876591
            ],
            [
              -74.0080374078952,
              40.63461827301238
            ],
            [
              -74.00788856236902,
              40.63467169588095
            ],
            [
              -74.00774733344372,
              40.63473593290666
            ],
            [
              -74.00761508118848,
              40.634810365482075
            ],
            [
              -74.00749307923856,
              40.63489427681358
            ],
            [
              -74.00738250253062,
              40.634986858823325
            ],
            [
              -74.00728441598764,
              40.63508721993003
            ],
            [
              -74.00719976426285,
              40.63519439363416
            ],
            [
              -74.00712936264124,
              40.63530734782459
            ],
            [
              -74.00707388918616,
              40.63542499471723
            ],
            [
              -74.00703387820715,
              40.635546201329916
            ],
            [
              -74.00700971511147,
              40.63566980039286
            ],
            [
              -74.00700163268937,
              40.63579460158949
            ],
            [
              -74.00700970886886,
              40.635919403019415
            ],
            [
              -74.00703386596184,
              40.63604300277326
            ],
            [
              -74.00707387140874,
              40.63616421050792
            ],
            [
              -74.00712934001487,
              40.63628185891048
            ],
            [
              -74.00719973765707,
              40.636394814940765
            ],
            [
              -74.00728438642489,
              40.63650199074395
            ],
            [
              -74.00738247114695,
              40.63660235412828
            ],
            [
              -74.00749304724005,
              40.63669493850666
            ],
            [
              -74.00761504980478,
              40.636778852206824
            ],
            [
              -74.00774730388095,
              40.63685328705985
            ],
            [
              -74.00788853576324,
              40.636917526184625
            ],
            [
              -74.00803738526885,
              40.636970950893044
            ],
            [
              -74.00819241883838,
              40.637013046649436
            ],
            [
              -74.00835214334398,
              40.637043408026926
            ],
            [
              -74.00851502047168,
              40.6370617426127
            ],
            [
              -74.00867948153925,
              40.63706787382471
            ]
          ]
        ]
      },
      "id": 5
    },
    {
      "type": "Feature",
      "properties": {
        "stroke": "#0055ff",
        "stroke-width": 2,
        "stroke-opacity": 1,
        "fill": "#0055ff",
        "fill-opacity": 1
      },
      "geometry": {
        "type": "Polygon",
        "coordinates": [
          [
            [
              -73.99380868846256,
              40.71535414119873
            ],
            [
              -73.99396881032368,
              40.71534817876346
            ],
            [
              -73.99412739003841,
              40.71533034888238
            ],
            [
              -73.99428290031531,
              40.71530082327641
            ],
            [
              -73.99443384342979,
              40.71525988630859
            ],
            [
              -73.99457876565084,
              40.71520793224492
            ],
            [
              -73.99471627124385,
              40.715145461456586
            ],
            [
              -73.99484503591434,
              40.71507307560007
            ],
            [
              -73.99496381956328,
              40.71499147182184
            ],
            [
              -73.99507147823078,
              40.71490143604326
            ],
            [
              -73.99516697511345,
              40.71480383539042
            ],
            [
              -73.99524939054896,
              40.714699609842064
            ],
            [
              -73.9953179308721,
              40.714589763175866
            ],
            [
              -73.99537193605647,
              40.714475353300415
            ],
            [
              -73.99541088606891,
              40.71435748206593
            ],
            [
              -73.99543440587517,
              40.71423728465218
            ],
            [
              -73.99544226904872,
              40.71411591863539
            ],
            [
              -73.99543439994821,
              40.71399455283984
            ],
            [
              -73.99541087444277,
              40.7138743560813
            ],
            [
              -73.99537191917791,
              40.713756485910814
            ],
            [
              -73.99531790938978,
              40.71364207746725
            ],
            [
              -73.99524936528844,
              40.71353223254582
            ],
            [
              -73.99516694704546,
              40.71342800898805
            ],
            [
              -73.99507144843396,
              40.71333041049513
            ],
            [
              -73.9949637891827,
              40.71324037696279
            ],
            [
              -73.99484500611752,
              40.7131587754308
            ],
            [
              -73.99471624317584,
              40.713086391734194
            ],
            [
              -73.99457874039032,
              40.71302392293645
            ],
            [
              -73.9944338219475,
              40.71297197061756
            ],
            [
              -73.99428288343678,
              40.71293103508163
            ],
            [
              -73.99412737841227,
              40.712901510539645
            ],
            [
              -73.99396880439673,
              40.71288368131377
            ],
            [
              -73.99380868846256,
              40.71287771909974
            ],
            [
              -73.9936485725284,
              40.71288368131377
            ],
            [
              -73.99348999851284,
              40.712901510539645
            ],
            [
              -73.99333449348835,
              40.71293103508163
            ],
            [
              -73.99318355497762,
              40.71297197061756
            ],
            [
              -73.99303863653479,
              40.71302392293645
            ],
            [
              -73.99290113374927,
              40.713086391734194
            ],
            [
              -73.9927723708076,
              40.7131587754308
            ],
            [
              -73.99265358774241,
              40.71324037696279
            ],
            [
              -73.99254592849115,
              40.71333041049513
            ],
            [
              -73.99245042987965,
              40.71342800898805
            ],
            [
              -73.99236801163667,
              40.71353223254582
            ],
            [
              -73.99229946753533,
              40.71364207746725
            ],
            [
              -73.9922454577472,
              40.713756485910814
            ],
            [
              -73.99220650248235,
              40.7138743560813
            ],
            [
              -73.9921829769769,
              40.71399455283984
            ],
            [
              -73.9921751078764,
              40.71411591863539
            ],
            [
              -73.99218297104993,
              40.71423728465218
            ],
            [
              -73.99220649085619,
              40.71435748206593
            ],
            [
              -73.99224544086864,
              40.714475353300415
            ],
            [
              -73.99229944605301,
              40.714589763175866
            ],
            [
              -73.99236798637614,
              40.714699609842064
            ],
            [
              -73.99245040181167,
              40.71480383539042
            ],
            [
              -73.99254589869433,
              40.71490143604326
            ],
            [
              -73.99265355736183,
              40.71499147182184
            ],
            [
              -73.99277234101078,
              40.71507307560007
            ],
            [
              -73.99290110568127,
              40.715145461456586
            ],
            [
              -73.99303861127427,
              40.71520793224492
            ],
            [
              -73.99318353349531,
              40.71525988630859
            ],
            [
              -73.9933344766098,
              40.71530082327641
            ],
            [
              -73.99348998688671,
              40.71533034888238
            ],
            [
              -73.99364856660142,
              40.71534817876346
            ],
            [
              -73.99380868846256,
              40.71535414119873
            ]
          ]
        ]
      },
      "id": 6
    }
  ]
}